NORAD_CAT_ID,OBJECT_NAME,OBJECT_TYPE,EPOCH,MEAN_MOTION,ECCENTRICITY,INCLINATION,RA_OF_ASC_NODE,ARG_OF_PERICENTER,MEAN_ANOMALY,BSTAR,MEAN_MOTION_DOT,MEAN_MOTION_DDOT,TLE_LINE0,TLE_LINE1,TLE_LINE2,SEMIMAJOR_AXIS,PERIOD,APOGEE,PERIGEE,DECAYED
53826.0,STARLINK-4756,PAYLOAD,2023-09-25 12:54:05,15.08858135,0.0001412,53.2173,7.049,101.4713,258.6437,0.0013315,0.00020977,0.0,0 STARLINK-4756,1 53826U 22114J   23268.53756392  .00020977  00000-0  13315-2 0  9995,2 53826  53.2173   7.0490 0001412 101.4713 258.6437 15.08858135 57542,6917.825,95.436,540.667,538.713,0.0
53826.0,STARLINK-4756,PAYLOAD,2023-09-25 14:29:28,15.08862083,0.0001324,53.2173,6.752,97.4516,262.6626,0.0016472,0.0002604,0.0,0 STARLINK-4756,1 53826U 22114J   23268.60380313  .00026040  00000-0  16472-2 0  9993,2 53826  53.2173   6.7520 0001324  97.4516 262.6626 15.08862083 57013,6917.813,95.436,540.594,538.762,0.0
53826.0,STARLINK-4756,PAYLOAD,2023-09-26 12:44:52,15.08860783,0.000157,53.2182,2.5903,84.9906,275.1266,0.00096528,0.00015116,0.0,0 STARLINK-4756,1 53826U 22114J   23269.53115899  .00015116  00000-0  96528-3 0  9994,2 53826  53.2182   2.5903 0001570  84.9906 275.1266 15.08860783 57697,6917.817,95.436,540.768,538.596,0.0
53826.0,STARLINK-4756,PAYLOAD,2023-09-27 09:24:53,15.08839617,0.0001518,53.218,358.7222,110.2147,249.9009,0.00070069,0.00010881,0.0,0 STARLINK-4756,1 53826U 22114J   23270.39228190  .00010881  00000-0  70069-3 0  9995,2 53826  53.2180 358.7222 0001518 110.2147 249.9009 15.08839617 57288,6917.882,95.438,540.797,538.696,0.0
53826.0,STARLINK-4756,PAYLOAD,2023-09-27 12:35:39,15.08836115,0.000142,53.2181,358.1274,117.7209,242.3927,0.00061853,9.569e-05,0.0,0 STARLINK-4756,1 53826U 22114J   23270.52476293  .00009569  00000-0  61853-3 0  9991,2 53826  53.2181 358.1274 0001420 117.7209 242.3927 15.08836115 57841,6917.892,95.438,540.74,538.775,0.0
53826.0,STARLINK-4756,PAYLOAD,2023-09-28 12:26:27,15.08833197,0.0001445,53.218,353.669,99.3716,260.744,-1.9136e-06,-3.18e-06,0.0,0 STARLINK-4756,1 53826U 22114J   23271.51837281 -.00000318  00000-0 -19136-5 0  9993,2 53826  53.2180 353.6690 0001445  99.3716 260.7440 15.08833197 57455,6917.901,95.438,540.766,538.767,0.0
53826.0,STARLINK-4756,PAYLOAD,2023-09-28 15:37:13,15.0883504,0.0001491,53.218,353.0724,99.5879,260.5282,-1.4448e-05,-5.18e-06,0.0,0 STARLINK-4756,1 53826U 22114J   23271.65085253 -.00000518  00000-0 -14448-4 0  9994,2 53826  53.2180 353.0724 0001491  99.5879 260.5282 15.08835040 58014,6917.896,95.438,540.792,538.729,0.0
53826.0,STARLINK-4756,PAYLOAD,2023-09-29 12:17:14,15.08844239,0.0001481,53.2174,349.2085,95.8422,264.2739,0.00033267,5.011e-05,0.0,0 STARLINK-4756,1 53826U 22114J   23272.51197370  .00005011  00000-0  33267-3 0  9994,2 53826  53.2174 349.2085 0001481  95.8422 264.2739 15.08844239 58148,6917.867,95.437,540.757,538.708,0.0
53826.0,STARLINK-4756,PAYLOAD,2023-10-01 04:01:52,15.08842679,0.0001904,53.2168,341.7749,80.0257,280.095,8.2403e-06,-1.57e-06,0.0,0 STARLINK-4756,1 53826U 22114J   23274.16797046 -.00000157  00000-0  82403-5 0  9998,2 53826  53.2168 341.7749 0001904  80.0257 280.0950 15.08842679 57851,6917.872,95.437,541.054,538.42,0.0
53826.0,STARLINK-4756,PAYLOAD,2023-10-01 11:58:48,15.08843292,0.0001715,53.218,340.2889,80.625,279.4936,-2.9464e-05,-7.57e-06,0.0,0 STARLINK-4756,1 53826U 22114J   23274.49916986 -.00000757  00000-0 -29464-4 0  9994,2 53826  53.2180 340.2889 0001715  80.6250 279.4936 15.08843292 58447,6917.87,95.437,540.922,538.549,0.0
53826.0,STARLINK-4756,PAYLOAD,2023-10-01 21:31:07,15.08836599,0.0001448,53.2179,338.5035,83.2603,276.8553,-9.9783e-05,-1.875e-05,0.0,0 STARLINK-4756,1 53826U 22114J   23274.89661254 -.00001875  00000-0 -99783-4 0  9996,2 53826  53.2179 338.5035 0001448  83.2603 276.8553 15.08836599 58507,6917.891,95.438,540.757,538.754,0.0
53826.0,STARLINK-4756,PAYLOAD,2023-10-02 13:24:59,15.08832417,0.000203,53.2171,335.53,84.4598,275.6626,-0.00012145,-2.22e-05,0.0,0 STARLINK-4756,1 53826U 22114J   23275.55902067 -.00002220  00000-0 -12145-3 0  9991,2 53826  53.2171 335.5300 0002030  84.4598 275.6626 15.08832417 58609,6917.904,95.438,541.173,538.364,0.0
53826.0,STARLINK-4756,PAYLOAD,2023-10-03 03:43:27,15.0883428,0.0001661,53.2172,332.8542,80.8714,279.2466,0.00023454,3.446e-05,0.0,0 STARLINK-4756,1 53826U 22114J   23276.15518208  .00003446  00000-0  23454-3 0  9992,2 53826  53.2172 332.8542 0001661  80.8714 279.2466 15.08834280 58159,6917.898,95.438,540.912,538.614,0.0
53826.0,STARLINK-4756,PAYLOAD,2023-10-03 10:04:59,15.08845598,0.0001765,53.2176,331.6642,89.0522,271.0673,0.00023694,3.485e-05,0.0,0 STARLINK-4756,1 53826U 22114J   23276.42013722  .00003485  00000-0  23694-3 0  9992,2 53826  53.2176 331.6642 0001765  89.0522 271.0673 15.08845598 58192,6917.863,95.437,540.949,538.507,0.0
53826.0,STARLINK-4756,PAYLOAD,2023-10-04 03:34:14,15.08844742,0.0001597,53.2156,328.3945,88.3446,271.7729,0.00031412,4.715e-05,0.0,0 STARLINK-4756,1 53826U 22114J   23277.14877977  .00004715  00000-0  31412-3 0  9996,2 53826  53.2156 328.3945 0001597  88.3446 271.7729 15.08844742 58301,6917.866,95.437,540.836,538.626,0.0
53826.0,STARLINK-4756,PAYLOAD,2023-10-04 09:55:46,15.08849365,0.0001556,53.2151,327.2042,91.8124,268.3046,0.00034181,5.157e-05,0.0,0 STARLINK-4756,1 53826U 22114J   23277.41373705  .00005157  00000-0  34181-3 0  9993,2 53826  53.2151 327.2042 0001556  91.8124 268.3046 15.08849365 58882,6917.852,95.437,540.793,538.64,0.0
53826.0,STARLINK-4756,PAYLOAD,2023-10-05 03:25:01,15.08843488,0.0001384,53.2158,323.9302,100.801,259.3138,2.2122e-05,6.4e-07,0.0,0 STARLINK-4756,1 53826U 22114J   23278.14237742  .00000064  00000-0  22122-4 0  9999,2 53826  53.2158 323.9302 0001384 100.8010 259.3138 15.08843488 58450,6917.87,95.437,540.692,538.777,0.0
53826.0,STARLINK-4756,PAYLOAD,2023-10-05 09:46:34,15.08844889,0.0001694,53.217,322.7445,88.4847,271.6339,0.00011057,1.472e-05,0.0,0 STARLINK-4756,1 53826U 22114J   23278.40733951  .00001472  00000-0  11057-3 0  9999,2 53826  53.2170 322.7445 0001694  88.4847 271.6339 15.08844889 59033,6917.865,95.437,540.902,538.559,0.0
53826.0,STARLINK-4756,PAYLOAD,2023-10-06 03:15:48,15.08840337,0.0001949,53.2172,319.4741,91.7876,268.334,4.2379e-05,3.86e-06,0.0,0 STARLINK-4756,1 53826U 22114J   23279.13598176  .00000386  00000-0  42379-4 0  9993,2 53826  53.2172 319.4741 0001949  91.7876 268.3340 15.08840337 58600,6917.879,95.438,541.093,538.396,0.0
53826.0,STARLINK-4756,PAYLOAD,2023-10-06 09:37:20,15.08849233,0.0001559,53.2167,318.2825,86.6856,273.4314,0.00016207,2.293e-05,0.0,0 STARLINK-4756,1 53826U 22114J   23279.40093634  .00002293  00000-0  16207-3 0  9991,2 53826  53.2167 318.2825 0001559  86.6856 273.4314 15.08849233 58648,6917.852,95.437,540.796,538.639,0.0
53826.0,STARLINK-4756,PAYLOAD,2023-10-06 19:09:40,15.08839551,0.0001506,53.2156,316.4986,84.1743,275.9421,8.8498e-05,1.121e-05,0.0,0 STARLINK-4756,1 53826U 22114J   23279.79838112  .00001121  00000-0  88498-4 0  9992,2 53826  53.2156 316.4986 0001506  84.1743 275.9421 15.08839551 58709,6917.882,95.438,540.789,538.705,0.0
53826.0,STARLINK-4756,PAYLOAD,2023-10-07 07:52:45,15.08836755,0.0001699,53.2173,314.1242,87.2108,272.9079,0.00010065,1.314e-05,0.0,0 STARLINK-4756,1 53826U 22114J   23280.32830489  .00001314  00000-0  10065-3 0  9990,2 53826  53.2173 314.1242 0001699  87.2108 272.9079 15.08836755 59328,6917.89,95.438,540.931,538.58,0.0
53826.0,STARLINK-4756,PAYLOAD,2023-10-07 19:00:27,15.08839387,0.0001763,53.2171,312.0418,92.4745,267.6449,8.9492e-05,1.136e-05,0.0,0 STARLINK-4756,1 53826U 22114J   23280.79198432  .00001136  00000-0  89492-4 0  9999,2 53826  53.2171 312.0418 0001763  92.4745 267.6449 15.08839387 59398,6917.882,95.438,540.967,538.528,0.0
53826.0,STARLINK-4756,PAYLOAD,2023-10-08 02:57:23,15.08836688,0.0001774,53.2178,310.5538,98.5338,261.5856,1.2946e-06,-2.67e-06,0.0,0 STARLINK-4756,1 53826U 22114J   23281.12318601 -.00000267  00000-0  12946-5 0  9995,2 53826  53.2178 310.5538 0001774  98.5338 261.5856 15.08836688 58900,6917.891,95.438,540.983,538.528,0.0
53826.0,STARLINK-4756,PAYLOAD,2023-10-08 09:18:55,15.08840148,0.0001648,53.2174,309.3634,94.9662,265.1518,4.8603e-05,4.86e-06,0.0,0 STARLINK-4756,1 53826U 22114J   23281.38814807  .00000486  00000-0  48603-4 0  9992,2 53826  53.2174 309.3634 0001648  94.9662 265.1518 15.08840148 59484,6917.88,95.438,540.885,538.605,0.0
53826.0,STARLINK-4756,PAYLOAD,2023-10-08 18:51:14,15.08839897,0.0001662,53.2167,307.5792,92.8147,267.3035,2.9201e-05,1.77e-06,0.0,0 STARLINK-4756,1 53826U 22114J   23281.78558595  .00000177  00000-0  29201-4 0  9995,2 53826  53.2167 307.5792 0001662  92.8147 267.3035 15.08839897 59546,6917.881,95.438,540.895,538.596,0.0
53826.0,STARLINK-4756,PAYLOAD,2023-10-09 09:09:42,15.08847494,0.000177,53.2167,304.9018,99.1509,260.9684,0.00014922,2.088e-05,0.0,0 STARLINK-4756,1 53826U 22114J   23282.38174389  .00002088  00000-0  14922-3 0  9993,2 53826  53.2167 304.9018 0001770  99.1509 260.9684 15.08847494 59091,6917.857,95.437,540.947,538.498,0.0
53826.0,STARLINK-4756,PAYLOAD,2023-10-10 02:38:57,15.0884278,0.000173,53.2172,301.6306,89.1053,271.0138,0.00023318,3.425e-05,0.0,0 STARLINK-4756,1 53826U 22114J   23283.11038745  .00003425  00000-0  23318-3 0  9995,2 53826  53.2172 301.6306 0001730  89.1053 271.0138 15.08842780 59203,6917.872,95.437,540.934,538.54,0.0
53826.0,STARLINK-4756,PAYLOAD,2023-10-10 09:00:29,15.08847786,0.0001698,53.2165,300.4403,87.9283,272.1903,0.00021293,3.103e-05,0.0,0 STARLINK-4756,1 53826U 22114J   23283.37534437  .00003103  00000-0  21293-3 0  9995,2 53826  53.2165 300.4403 0001698  87.9283 272.1903 15.08847786 59780,6917.857,95.437,540.896,538.547,0.0
53826.0,STARLINK-4756,PAYLOAD,2023-10-10 18:32:48,15.08842344,0.0001794,53.2178,298.6579,85.3282,274.7915,0.00011071,1.474e-05,0.0,0 STARLINK-4756,1 53826U 22114J   23283.77278780  .00001474  00000-0  11071-3 0  9997,2 53826  53.2178 298.6579 0001794  85.3282 274.7915 15.08842344 59847,6917.873,95.437,540.979,538.497,0.0
